NORAD_CAT_ID,OBJECT_NAME,OBJECT_TYPE,EPOCH,MEAN_MOTION,ECCENTRICITY,INCLINATION,RA_OF_ASC_NODE,ARG_OF_PERICENTER,MEAN_ANOMALY,BSTAR,MEAN_MOTION_DOT,MEAN_MOTION_DDOT,TLE_LINE0,TLE_LINE1,TLE_LINE2,SEMIMAJOR_AXIS,PERIOD,APOGEE,PERIGEE,DECAYED
54775.0,STARLINK-5465,PAYLOAD,2024-08-01 03:25:36,15.08831235,0.0001538,53.2169,152.5812,96.3391,263.7776,3.5981e-06,-2.31e-06,0.0,0 STARLINK-5465,1 54775U 22175T   24214.14278412 -.00000231  00000-0  35981-5 0  9995,2 54775  53.2169 152.5812 0001538  96.3391 263.7776 15.08831235 89368,6917.907,95.438,540.836,538.708,0.0
54775.0,STARLINK-5465,PAYLOAD,2024-08-01 12:57:53,15.08847858,0.0001397,53.2164,150.797,91.975,268.1402,0.00012196,1.654e-05,0.0,0 STARLINK-5465,1 54775U 22175T   24214.54020782  .00001654  00000-0  12196-3 0  9994,2 54775  53.2164 150.7970 0001397  91.9750 268.1402 15.08847858 91581,6917.856,95.437,540.688,538.755,0.0
54775.0,STARLINK-5465,PAYLOAD,2024-08-01 19:19:27,15.08836015,0.0001508,53.2158,149.6068,93.8258,266.2907,-0.00011152,-2.062e-05,0.0,0 STARLINK-5465,1 54775U 22175T   24214.80517406 -.00002062  00000-0 -11152-3 0  9994,2 54775  53.2158 149.6068 0001508  93.8258 266.2907 15.08836015 89463,6917.893,95.438,540.801,538.714,0.0
54775.0,STARLINK-5465,PAYLOAD,2024-08-02 12:48:40,15.08854026,0.0001242,53.2161,146.3332,93.0148,267.0987,0.0002049,2.976e-05,0.0,0 STARLINK-5465,1 54775U 22175T   24215.53380462  .00002976  00000-0  20490-3 0  9992,2 54775  53.2161 146.3332 0001242  93.0148 267.0987 15.08854026 89571,6917.838,95.437,540.562,538.843,0.0
54775.0,STARLINK-5465,PAYLOAD,2024-08-02 22:21:01,15.0882668,0.0001542,53.2155,144.5515,95.7696,264.3472,6.2163e-05,7.01e-06,0.0,0 STARLINK-5465,1 54775U 22175T   24215.93126264  .00000701  00000-0  62163-4 0  9992,2 54775  53.2155 144.5515 0001542  95.7696 264.3472 15.08826680 91798,6917.921,95.438,540.853,538.719,0.0
54775.0,STARLINK-5465,PAYLOAD,2024-08-03 01:31:47,15.08829566,0.0001259,53.2153,143.9578,97.2571,262.8564,0.00012743,1.74e-05,0.0,0 STARLINK-5465,1 54775U 22175T   24216.06374240  .00001740  00000-0  12743-3 0  9998,2 54775  53.2153 143.9578 0001259  97.2571 262.8564 15.08829566 89655,6917.912,95.438,540.648,538.906,0.0
54775.0,STARLINK-5465,PAYLOAD,2024-08-03 12:39:28,15.08849914,0.0001347,53.2157,141.8735,100.0696,260.0448,0.00030363,4.549e-05,0.0,0 STARLINK-5465,1 54775U 22175T   24216.52741197  .00004549  00000-0  30363-3 0  9996,2 54775  53.2157 141.8735 0001347 100.0696 260.0448 15.08849914 91888,6917.85,95.437,540.647,538.783,0.0
54775.0,STARLINK-5465,PAYLOAD,2024-08-03 19:01:01,15.08839555,0.0001647,53.2163,140.6837,113.9517,246.1647,0.00019705,2.849e-05,0.0,0 STARLINK-5465,1 54775U 22175T   24216.79237710  .00002849  00000-0  19705-3 0  9994,2 54775  53.2163 140.6837 0001647 113.9517 246.1647 15.08839555 89763,6917.882,95.438,540.886,538.607,0.0
54775.0,STARLINK-5465,PAYLOAD,2024-08-04 12:30:15,15.08851547,0.0001546,53.2166,137.4136,109.599,250.5169,0.00030741,4.609e-05,0.0,0 STARLINK-5465,1 54775U 22175T   24217.52101259  .00004609  00000-0  30741-3 0  9993,2 54775  53.2166 137.4136 0001546 109.5990 250.5169 15.08851547 92033,6917.845,95.437,540.78,538.641,0.0
54775.0,STARLINK-5465,PAYLOAD,2024-08-04 22:02:34,15.08855708,0.0001973,53.2156,135.6274,119.677,240.4419,0.00050512,7.763e-05,0.0,0 STARLINK-5465,1 54775U 22175T   24217.91845299  .00007763  00000-0  50512-3 0  9997,2 54775  53.2156 135.6274 0001973 119.6770 240.4419 15.08855708 92092,6917.832,95.437,541.062,538.332,0.0
54775.0,STARLINK-5465,PAYLOAD,2024-08-05 01:13:20,15.08854719,0.0001439,53.2158,135.0368,99.4235,260.692,0.00047294,7.25e-05,0.0,0 STARLINK-5465,1 54775U 22175T   24218.05093328  .00007250  00000-0  47294-3 0  9995,2 54775  53.2158 135.0368 0001439  99.4235 260.6920 15.08854719 89953,6917.835,95.437,540.696,538.705,0.0
54775.0,STARLINK-5465,PAYLOAD,2024-08-05 21:53:22,15.08831038,0.0001501,53.2172,131.1703,107.2495,252.8662,4.5448e-05,4.35e-06,0.0,0 STARLINK-5465,1 54775U 22175T   24218.91206470  .00000435  00000-0  45448-4 0  9992,2 54775  53.2172 131.1703 0001501 107.2495 252.8662 15.08831038 92246,6917.908,95.438,540.811,538.734,0.0
54775.0,STARLINK-5465,PAYLOAD,2024-08-06 04:14:55,15.08805615,0.0001276,53.2168,129.9802,69.6896,290.4233,-0.0004243,-7.028e-05,0.0,0 STARLINK-5465,1 54775U 22175T   24219.17703518 -.00007028  00000-0 -42430-3 0  9990,2 54775  53.2168 129.9802 0001276  69.6896 290.4233 15.08805615 90120,6917.985,95.44,540.733,538.968,0.0
54775.0,STARLINK-5465,PAYLOAD,2024-08-06 21:44:10,15.08839831,0.000145,53.2165,126.7114,73.9151,286.2001,0.00082095,0.00012801,0.0,0 STARLINK-5465,1 54775U 22175T   24219.90567887  .00012801  00000-0  82095-3 0  9992,2 54775  53.2165 126.7114 0001450  73.9151 286.2001 15.08839831 92398,6917.881,95.438,540.749,538.743,0.0
54775.0,STARLINK-5465,PAYLOAD,2024-08-06 23:19:33,15.0884656,0.0001465,53.2165,126.4145,79.8751,280.2406,0.0010005,0.00015674,0.0,0 STARLINK-5465,1 54775U 22175T   24219.97191747  .00015674  00000-0  10005-2 0  9999,2 54775  53.2165 126.4145 0001465  79.8751 280.2406 15.08846560 90248,6917.86,95.437,540.739,538.712,0.0
54775.0,STARLINK-5465,PAYLOAD,2024-08-08 21:25:43,15.08860305,0.0001834,53.2148,117.7815,132.2928,227.822,0.00060911,9.425e-05,0.0,0 STARLINK-5465,1 54775U 22175T   24221.89286734  .00009425  00000-0  60911-3 0  9993,2 54775  53.2148 117.7815 0001834 132.2928 227.8220 15.08860305 92691,6917.818,95.436,540.952,538.415,0.0
54775.0,STARLINK-5465,PAYLOAD,2024-08-09 00:36:30,15.08882294,0.0001759,53.2161,117.1946,62.8962,297.2209,0.0013045,0.00020558,0.0,0 STARLINK-5465,1 54775U 22175T   24222.02534931  .00020558  00000-0  13045-2 0  9999,2 54775  53.2161 117.1946 0001759  62.8962 297.2209 15.08882294 90559,6917.751,95.435,540.833,538.399,0.0
54775.0,STARLINK-5465,PAYLOAD,2024-08-09 10:08:47,15.08894317,0.0001309,53.2147,115.4122,88.3694,271.7448,0.0011308,0.00017781,0.0,0 STARLINK-5465,1 54775U 22175T   24222.42277448  .00017781  00000-0  11308-2 0  9994,2 54775  53.2147 115.4122 0001309  88.3694 271.7448 15.08894317 92773,6917.714,95.434,540.485,538.674,0.0
54775.0,STARLINK-5465,PAYLOAD,2024-08-09 16:30:20,15.08871793,0.0003135,53.2131,114.2274,85.9183,274.2167,0.00034266,5.174e-05,0.0,0 STARLINK-5465,1 54775U 22175T   24222.68774054  .00005174  00000-0  34266-3 0  9999,2 54775  53.2131 114.2274 0003135  85.9183 274.2167 15.08871793 90650,6917.783,95.436,541.817,537.479,0.0
54775.0,STARLINK-5465,PAYLOAD,2024-08-09 21:16:30,15.08828425,0.000147,53.2145,113.3309,106.7365,253.3788,0.00055545,8.56e-05,0.0,0 STARLINK-5465,1 54775U 22175T   24222.88646334  .00008560  00000-0  55545-3 0  9995,2 54775  53.2145 113.3309 0001470 106.7365 253.3788 15.08828425 92842,6917.916,95.438,540.798,538.764,0.0
54775.0,STARLINK-5465,PAYLOAD,2024-08-10 00:27:16,15.08830185,0.0001314,53.2149,112.7357,107.4115,252.7021,0.0020373,0.00032276,0.0,0 STARLINK-5465,1 54775U 22175T   24223.01894464  .00032276  00000-0  20373-2 0  9991,2 54775  53.2149 112.7357 0001314 107.4115 252.7021 15.08830185 90702,6917.91,95.438,540.684,538.866,0.0
54775.0,STARLINK-5465,PAYLOAD,2024-08-10 16:21:08,15.0885077,0.0001406,53.2151,109.7609,100.5719,259.5432,0.001169,0.00018371,0.0,0 STARLINK-5465,1 54775U 22175T   24223.68134545  .00018371  00000-0  11690-2 0  9993,2 54775  53.2151 109.7609 0001406 100.5719 259.5432 15.08850770 90801,6917.847,95.437,540.685,538.74,0.0
54775.0,STARLINK-5465,PAYLOAD,2024-08-10 22:42:40,15.08844212,0.0001324,53.2151,108.5679,114.5328,245.5803,0.00058541,9.042e-05,0.0,0 STARLINK-5465,1 54775U 22175T   24223.94630521  .00009042  00000-0  58541-3 0  9999,2 54775  53.2151 108.5679 0001324 114.5328 245.5803 15.08844212 93001,6917.868,95.437,540.648,538.817,0.0
54775.0,STARLINK-5465,PAYLOAD,2024-08-11 01:53:26,15.08850132,0.0001354,53.2156,107.973,106.2165,253.8976,0.00061577,9.528e-05,0.0,0 STARLINK-5465,1 54775U 22175T   24224.07878400  .00009528  00000-0  61577-3 0  9996,2 54775  53.2156 107.9730 0001354 106.2165 253.8976 15.08850132 90869,6917.849,95.437,540.651,538.778,0.0
54775.0,STARLINK-5465,PAYLOAD,2024-08-11 09:50:22,15.08869175,0.0001794,53.2154,106.4883,81.4797,278.6399,0.0011246,0.0001767,0.0,0 STARLINK-5465,1 54775U 22175T   24224.40997857  .00017670  00000-0  11246-2 0  9995,2 54775  53.2154 106.4883 0001794  81.4797 278.6399 15.08869175 90910,6917.791,95.436,540.897,538.415,0.0
54775.0,STARLINK-5465,PAYLOAD,2024-08-11 22:33:27,15.08831574,0.0001061,53.215,104.1126,55.4482,304.661,-0.00017297,-3.039e-05,0.0,0 STARLINK-5465,1 54775U 22175T   24224.93990530 -.00003039  00000-0 -17297-3 0  9993,2 54775  53.2150 104.1126 0001061  55.4482 304.6610 15.08831574 93157,6917.906,95.438,540.505,539.037,0.0
54775.0,STARLINK-5465,PAYLOAD,2024-08-12 01:44:13,15.08860064,0.0001208,53.2163,103.5153,85.8464,274.2666,0.00072662,0.00011301,0.0,0 STARLINK-5465,1 54775U 22175T   24225.07238174  .00011301  00000-0  72662-3 0  9994,2 54775  53.2163 103.5153 0001208  85.8464 274.2666 15.08860064 91016,6917.819,95.436,540.52,538.848,0.0
54775.0,STARLINK-5465,PAYLOAD,2024-08-12 17:38:04,15.08855141,0.0001243,53.2168,100.5377,88.4538,271.6596,0.00048247,7.402e-05,0.0,0 STARLINK-5465,1 54775U 22175T   24225.73477926  .00007402  00000-0  48247-3 0  9996,2 54775  53.2168 100.5377 0001243  88.4538 271.6596 15.08855141 91110,6917.834,95.437,540.559,538.839,0.0
54775.0,STARLINK-5465,PAYLOAD,2024-08-12 19:13:28,15.08857086,0.0001231,53.2162,100.2412,83.6384,276.4748,0.00059059,9.128e-05,0.0,0 STARLINK-5465,1 54775U 22175T   24225.80101887  .00009128  00000-0  59059-3 0  9994,2 54775  53.2162 100.2412 0001231  83.6384 276.4748 15.08857086 93286,6917.828,95.436,540.545,538.842,0.0
54775.0,STARLINK-5465,PAYLOAD,2024-08-13 20:39:41,15.08827405,0.0002913,53.2167,95.4861,123.5205,236.6065,0.00070373,0.00010926,0.0,0 STARLINK-5465,1 54775U 22175T   24226.86089438  .00010926  00000-0  70373-3 0  9998,2 54775  53.2167  95.4861 0002913 123.5205 236.6065 15.08827405 91288,6917.919,95.438,541.799,537.769,0.0
